SAPPHIRE                
1 39088U 13009C   26171.43846095  .00000069  00000+0  39200-4 0  9999
2 39088  98.4263 350.8170 0010178 235.9238 124.0983 14.35241298697047
PRAETORIAN SDA_602      
1 65565U 25203A   26171.27657532  .00000062  00000+0  45004-4 0  9997
2 65565  81.3029   7.9069 0005957 177.1718 182.9474 13.84277876 39124
PRAETORIAN SDA_603      
1 65566U 25203B   26171.30411024  .00000275  00000+0  23691-3 0  9999
2 65566  81.3037   7.7998 0009556 178.7312 181.3871 13.83904580 39132
PRAETORIAN SDA_604      
1 65567U 25203C   26170.96403972  .00000046  00000+0  31258-4 0  9999
2 65567  81.3052   8.5312 0005419 183.6347 176.4770 13.83047734 39060
PRAETORIAN SDA_605      
1 65568U 25203D   26171.29021462  .00000043  00000+0  27955-4 0  9993
2 65568  81.3018   7.8898 0008250 174.5092 185.6157 13.83434437 39124
PRAETORIAN SDA_606      
1 65569U 25203E   26168.30750804  .00000053  00000+0  37439-4 0  9990
2 65569  81.3055  10.8712 0005744 180.4388 179.6764 13.83407378 38708
PRAETORIAN SDA_607      
1 65570U 25203F   26171.27890219  .00000120  00000+0  97190-4 0  9992
2 65570  81.3036   7.7808 0008896 178.9840 181.1336 13.84284906 39138
PRAETORIAN SDA_608      
1 65571U 25203G   26171.47425272  .00000051  00000+0  35115-4 0  9990
2 65571  81.3006   7.7639 0005940 181.5836 178.5303 13.83817196 39147
PRAETORIAN SDA_609      
1 65572U 25203H   26170.97224787 -.00000045  00000+0 -50798-4 0  9992
2 65572  81.3047   8.2110 0006881 177.4428 182.6765 13.84210630 39081
PRAETORIAN SDA_610      
1 65573U 25203J   26171.30949067  .00000054  00000+0  38212-4 0  9991
2 65573  81.2999   7.8745 0006766 182.2174 177.8954 13.83767709 39124
PRAETORIAN SDA_611      
1 65574U 25203K   26171.31132722  .00000106  00000+0  86060-4 0  9997
2 65574  81.3015   8.0406 0005502 185.6554 174.4541 13.83309355 39111
PRAETORIAN SDA_612      
1 65575U 25203L   26171.29704375  .00000145  00000+0  11763-3 0  9994
2 65575  81.3031   7.6333 0009209 178.0136 182.1060 13.85039458 39145
PRAETORIAN SDA_613      
1 65576U 25203M   26170.95751025  .00000045  00000+0  30652-4 0  9999
2 65576  81.2998   8.3673 0005719 176.1966 183.9234 13.82765296 39060
PRAETORIAN SDA_614      
1 65577U 25203N   26171.28680602  .00000082  00000+0  61872-4 0  9998
2 65577  81.3014   7.7208 0007187 175.0044 185.1186 13.84777598 39143
PRAETORIAN SDA_615      
1 65578U 25203P   26171.48127051  .00000073  00000+0  54653-4 0  9994
2 65578  81.3023   7.5066 0009079 176.2694 183.8532 13.84436424 39162
PRAETORIAN SDA_616      
1 65579U 25203Q   26170.94897446  .00000194  00000+0  16597-3 0  9995
2 65579  81.3060   8.5231 0005429 184.4895 175.6214 13.83268264 39067
PRAETORIAN SDA_617      
1 65580U 25203R   26171.47718117  .00000022  00000+0  90612-5 0  9995
2 65580  81.3036   7.8658 0007451 175.0795 185.0435 13.83150161 39144
PRAETORIAN SDA_618      
1 65581U 25203S   26170.94095469  .00000180  00000+0  14921-3 0  9997
2 65581  81.3020   7.9356 0009634 180.2746 179.8408 13.84669976 39098
PRAETORIAN SDA_619      
1 65582U 25203T   26170.97861984  .00000100  00000+0  79600-4 0  9992
2 65582  81.3048   8.2022 0008153 177.5525 182.5673 13.83806323 39714
PRAETORIAN SDA_620      
1 65583U 25203U   26171.29624150  .00000124  00000+0  10119-3 0  9996
2 65583  81.3024   7.9286 0007932 172.6670 187.4604 13.83617991 39122
PRAETORIAN SDA_621      
1 65584U 25203V   26171.26961720  .00000043  00000+0  27910-4 0  9999
2 65584  81.3020   7.8711 0007532 170.2935 189.8368 13.83801503 39122
PRAETORIAN SDA_601      
1 65585U 25203W   26170.95230967  .00000504  00000+0  44903-3 0  9999
2 65585  81.3041   8.4633 0005507 187.7583 172.3489 13.83168348 39065
